{
  "type": "FeatureCollection",
  "features": [
    {
      "type": "Feature",
      "properties": {
        "norad_id": 37533,
        "name": "COSMOS 2251 DEB",
        "group": "cosmos-2251-debris",
        "lat": 21.07763351936395,
        "lon": -178.49438020526745,
        "alt_km": 952.0063742948487,
        "timestamp": "2025-12-22T04:03:39.566198+00:00",
        "meta_object_name": "COSMOS 2251 DEB",
        "meta_object_id": "1993-036BNN",
        "meta_epoch": "2025-12-17T06:38:38.162976",
        "meta_mean_motion": 14.12190824,
        "meta_eccentricity": 0.0157786,
        "meta_inclination": 74.0692,
        "meta_ra_of_asc_node": 183.8069,
        "meta_arg_of_pericenter": 239.4795,
        "meta_mean_anomaly": 119.0691,
        "meta_ephemeris_type": 0,
        "meta_classification_type": "U",
        "meta_norad_cat_id": 37533,
        "meta_element_set_no": 999,
        "meta_rev_at_epoch": 62985,
        "meta_bstar": 0.0010470743,
        "meta_mean_motion_dot": 2.138e-05,
        "meta_mean_motion_ddot": 0,
        "tle_line1": "1 37533U 93036BNN 25351.27683059  .00002138  00000+0  10471-2 0  9996",
        "tle_line2": "2 37533  74.0692 183.8069 0157786 239.4795 119.0691 14.12190824629858"
      },
      "geometry": {
        "type": "Point",
        "coordinates": [
          -178.49438020526745,
          21.07763351936395
        ]
      }
    },
    {
      "type": "Feature",
      "properties": {
        "norad_id": 37535,
        "name": "COSMOS 2251 DEB",
        "group": "cosmos-2251-debris",
        "lat": 66.8331615140792,
        "lon": 97.56630266369525,
        "alt_km": 700.785734601568,
        "timestamp": "2025-12-22T04:03:39.566208+00:00",
        "meta_object_name": "COSMOS 2251 DEB",
        "meta_object_id": "1993-036BNQ",
        "meta_epoch": "2025-12-21T13:13:10.155072",
        "meta_mean_motion": 14.58509294,
        "meta_eccentricity": 0.0027296,
        "meta_inclination": 74.0234,
        "meta_ra_of_asc_node": 56.7149,
        "meta_arg_of_pericenter": 194.5443,
        "meta_mean_anomaly": 233.1239,
        "meta_ephemeris_type": 0,
        "meta_classification_type": "U",
        "meta_norad_cat_id": 37535,
        "meta_element_set_no": 999,
        "meta_rev_at_epoch": 85453,
        "meta_bstar": 0.00051717,
        "meta_mean_motion_dot": 2.386e-05,
        "meta_mean_motion_ddot": 0,
        "tle_line1": "1 37535U 93036BNQ 25355.55081198  .00002386  00000+0  51717-3 0  9993",
        "tle_line2": "2 37535  74.0234  56.7149 0027296 194.5443 233.1239 14.58509294854538"
      },
      "geometry": {
        "type": "Point",
        "coordinates": [
          97.56630266369525,
          66.8331615140792
        ]
      }
    },
    {
      "type": "Feature",
      "properties": {
        "norad_id": 37537,
        "name": "COSMOS 2251 DEB",
        "group": "cosmos-2251-debris",
        "lat": -73.90263956385726,
        "lon": 164.28774142226078,
        "alt_km": 788.116380004205,
        "timestamp": "2025-12-22T04:03:39.566218+00:00",
        "meta_object_name": "COSMOS 2251 DEB",
        "meta_object_id": "1993-036BNS",
        "meta_epoch": "2025-12-20T10:42:49.127616",
        "meta_mean_motion": 14.37501224,
        "meta_eccentricity": 0.00506405,
        "meta_inclination": 74.0118,
        "meta_ra_of_asc_node": 250.923,
        "meta_arg_of_pericenter": 29.0994,
        "meta_mean_anomaly": 331.2965,
        "meta_ephemeris_type": 0,
        "meta_classification_type": "U",
        "meta_norad_cat_id": 37537,
        "meta_element_set_no": 999,
        "meta_rev_at_epoch": 85144,
        "meta_bstar": 0.00015589404,
        "meta_mean_motion_dot": 4.47e-06,
        "meta_mean_motion_ddot": 0,
        "tle_line1": "1 37537U 93036BNS 25354.44640194  .00000447  00000+0  15589-3 0  9992",
        "tle_line2": "2 37537  74.0118 250.9230 0050640  29.0994 331.2965 14.37501224851447"
      },
      "geometry": {
        "type": "Point",
        "coordinates": [
          164.28774142226078,
          -73.90263956385726
        ]
      }
    },
    {
      "type": "Feature",
      "properties": {
        "norad_id": 37546,
        "name": "COSMOS 2251 DEB",
        "group": "cosmos-2251-debris",
        "lat": 15.10934457062746,
        "lon": 83.83263431528495,
        "alt_km": 625.3753104885882,
        "timestamp": "2025-12-22T04:03:39.566228+00:00",
        "meta_object_name": "COSMOS 2251 DEB",
        "meta_object_id": "1993-036BPB",
        "meta_epoch": "2025-12-21T05:17:26.036736",
        "meta_mean_motion": 14.80807672,
        "meta_eccentricity": 0.0005286,
        "meta_inclination": 74.0227,
        "meta_ra_of_asc_node": 81.2679,
        "meta_arg_of_pericenter": 78.5056,
        "meta_mean_anomaly": 281.6714,
        "meta_ephemeris_type": 0,
        "meta_classification_type": "U",
        "meta_norad_cat_id": 37546,
        "meta_element_set_no": 999,
        "meta_rev_at_epoch": 66013,
        "meta_bstar": 0.0017047,
        "meta_mean_motion_dot": 0.00013143,
        "meta_mean_motion_ddot": 0,
        "tle_line1": "1 37546U 93036BPB 25355.22044024  .00013143  00000+0  17047-2 0  9996",
        "tle_line2": "2 37546  74.0227  81.2679 0005286  78.5056 281.6714 14.80807672660132"
      },
      "geometry": {
        "type": "Point",
        "coordinates": [
          83.83263431528495,
          15.10934457062746
        ]
      }
    },
    {
      "type": "Feature",
      "properties": {
        "norad_id": 37959,
        "name": "COSMOS 2251 DEB",
        "group": "cosmos-2251-debris",
        "lat": 13.433314195235011,
        "lon": -144.95154783726505,
        "alt_km": 660.3367371223594,
        "timestamp": "2025-12-22T04:03:39.566237+00:00",
        "meta_object_name": "COSMOS 2251 DEB",
        "meta_object_id": "1993-036BPJ",
        "meta_epoch": "2025-12-21T11:07:20.053056",
        "meta_mean_motion": 14.58192555,
        "meta_eccentricity": 0.00573097,
        "meta_inclination": 74.0116,
        "meta_ra_of_asc_node": 40.3196,
        "meta_arg_of_pericenter": 181.2544,
        "meta_mean_anomaly": 241.3258,
        "meta_ephemeris_type": 0,
        "meta_classification_type": "U",
        "meta_norad_cat_id": 37959,
        "meta_element_set_no": 999,
        "meta_rev_at_epoch": 80254,
        "meta_bstar": 0.0004490012,
        "meta_mean_motion_dot": 2.089e-05,
        "meta_mean_motion_ddot": 0,
        "tle_line1": "1 37959U 93036BPJ 25355.46342654  .00002089  00000+0  44900-3 0  9996",
        "tle_line2": "2 37959  74.0116  40.3196 0057309 181.2544 241.3258 14.58192555802545"
      },
      "geometry": {
        "type": "Point",
        "coordinates": [
          -144.95154783726505,
          13.433314195235011
        ]
      }
    },
    {
      "type": "Feature",
      "properties": {
        "norad_id": 37960,
        "name": "COSMOS 2251 DEB",
        "group": "cosmos-2251-debris",
        "lat": 59.43221895312543,
        "lon": -38.57408843969027,
        "alt_km": 796.1635575865675,
        "timestamp": "2025-12-22T04:03:39.566259+00:00",
        "meta_object_name": "COSMOS 2251 DEB",
        "meta_object_id": "1993-036BPK",
        "meta_epoch": "2025-12-21T05:19:33.246912",
        "meta_mean_motion": 14.07880113,
        "meta_eccentricity": 0.0248301,
        "meta_inclination": 74.0587,
        "meta_ra_of_asc_node": 172.0268,
        "meta_arg_of_pericenter": 188.6422,
        "meta_mean_anomaly": 171.0406,
        "meta_ephemeris_type": 0,
        "meta_classification_type": "U",
        "meta_norad_cat_id": 37960,
        "meta_element_set_no": 999,
        "meta_rev_at_epoch": 77525,
        "meta_bstar": 0.00064412,
        "meta_mean_motion_dot": 1.424e-05,
        "meta_mean_motion_ddot": 0,
        "tle_line1": "1 37960U 93036BPK 25355.22191258  .00001424  00000+0  64412-3 0  9996",
        "tle_line2": "2 37960  74.0587 172.0268 0248301 188.6422 171.0406 14.07880113775251"
      },
      "geometry": {
        "type": "Point",
        "coordinates": [
          -38.57408843969027,
          59.43221895312543
        ]
      }
    },
    {
      "type": "Feature",
      "properties": {
        "norad_id": 37961,
        "name": "COSMOS 2251 DEB",
        "group": "cosmos-2251-debris",
        "lat": -44.08082576230795,
        "lon": -44.73042997847198,
        "alt_km": 680.3518395237543,
        "timestamp": "2025-12-22T04:03:39.566270+00:00",
        "meta_object_name": "COSMOS 2251 DEB",
        "meta_object_id": "1993-036BPL",
        "meta_epoch": "2025-12-13T03:18:27.462240",
        "meta_mean_motion": 14.57979799,
        "meta_eccentricity": 0.00406759,
        "meta_inclination": 74.0407,
        "meta_ra_of_asc_node": 136.3488,
        "meta_arg_of_pericenter": 216.8805,
        "meta_mean_anomaly": 142.9561,
        "meta_ephemeris_type": 0,
        "meta_classification_type": "U",
        "meta_norad_cat_id": 37961,
        "meta_element_set_no": 999,
        "meta_rev_at_epoch": 80071,
        "meta_bstar": 0.001729191,
        "meta_mean_motion_dot": 8.011e-05,
        "meta_mean_motion_ddot": 0,
        "tle_line1": "1 37961U 93036BPL 25347.13781785  .00008011  00000+0  17292-2 0  9990",
        "tle_line2": "2 37961  74.0407 136.3488 0040675 216.8805 142.9561 14.57979799800716"
      },
      "geometry": {
        "type": "Point",
        "coordinates": [
          -44.73042997847198,
          -44.08082576230795
        ]
      }
    }
  ]
}